{"type": "FeatureCollection", "features": [ {"type": "Feature", "properties": {"norad_id": 66584, "name": "STARLINK-35939", "group": "last-30-days", "lat": 42.977194646466934, "lon": 122.48242954005173, "alt_km": 437.1481001430948, "timestamp": "2025-12-27T17:24:56.103703+00:00", "meta": {"OBJECT_NAME": "STARLINK-35939", "OBJECT_ID": "2025-268AD", "EPOCH": "2025-12-27T12:00:02.000160", "MEAN_MOTION": 15.41980162, "ECCENTRICITY": 9.98e-05, "INCLINATION": 43.0002, "RA_OF_ASC_NODE": 34.5764, "ARG_OF_PERICENTER": 286.5889, "MEAN_ANOMALY": 349.2589, "EPHEMERIS_TYPE": 0, "CLASSIFICATION_TYPE": "U", "NORAD_CAT_ID": 66584, "ELEMENT_SET_NO": 999, "REV_AT_EPOCH": 599, "BSTAR": -0.050625, "MEAN_MOTION_DOT": -0.01969594, "MEAN_MOTION_DDOT": 0}, "tle": {"line1": "1 66584U 25268AD  25361.50002315 -.01969594  00000+0 -50625-1 0  9998", "line2": "2 66584  43.0002  34.5764 0000998 286.5889 349.2589 15.41980162  5991"}}, "geometry": {"type": "Point", "coordinates": [122.48242954005173, 42.977194646466934]}}, {"type": "Feature", "properties": {"norad_id": 66585, "name": "STARLINK-35963", "group": "last-30-days", "lat": -24.50700199422003, "lon": -116.87748440836015, "alt_km": 484.44508744204086, "timestamp": "2025-12-27T17:24:56.103714+00:00", "meta": {"OBJECT_NAME": "STARLINK-35963", "OBJECT_ID": "2025-268AE", "EPOCH": "2025-12-27T12:00:02.000160", "MEAN_MOTION": 15.2832318, "ECCENTRICITY": 6.53e-05, "INCLINATION": 43.001, "RA_OF_ASC_NODE": 35.1108, "ARG_OF_PERICENTER": 257.6449, "MEAN_ANOMALY": 157.1378, "EPHEMERIS_TYPE": 0, "CLASSIFICATION_TYPE": "U", "NORAD_CAT_ID": 66585, "ELEMENT_SET_NO": 999, "REV_AT_EPOCH": 599, "BSTAR": -0.042504, "MEAN_MOTION_DOT": -0.01093836, "MEAN_MOTION_DDOT": 0}, "tle": {"line1": "1 66585U 25268AE  25361.50002315 -.01093836  00000+0 -42504-1 0  9993", "line2": "2 66585  43.0010  35.1108 0000653 257.6449 157.1378 15.28323180  5997"}}, "geometry": {"type": "Point", "coordinates": [-116.87748440836015, -24.50700199422003]}}, {"type": "Feature", "properties": {"norad_id": 66586, "name": "TJS-21", "group": "last-30-days", "lat": 37.34156135284559, "lon": -176.63924757650267, "alt_km": 20263.14911323882, "timestamp": "2025-12-27T17:24:56.103727+00:00", "meta": {"OBJECT_NAME": "TJS-21", "OBJECT_ID": "2025-269A", "EPOCH": "2025-12-18T16:58:10.473888", "MEAN_MOTION": 2.00580748, "ECCENTRICITY": 0.6806869, "INCLINATION": 63.2733, "RA_OF_ASC_NODE": 161.7218, "ARG_OF_PERICENTER": 269.7428, "MEAN_ANOMALY": 18.6663, "EPHEMERIS_TYPE": 0, "CLASSIFICATION_TYPE": "U", "NORAD_CAT_ID": 66586, "ELEMENT_SET_NO": 999, "REV_AT_EPOCH": 55, "BSTAR": -0.059507049, "MEAN_MOTION_DOT": 1.084e-05, "MEAN_MOTION_DDOT": 0}, "tle": {"line1": "1 66586U 25269A   25352.70706567  .00001084  00000+0 -59507-1 0  9990", "line2": "2 66586  63.2733 161.7218 6806869 269.7428  18.6663  2.00580748   558"}}, "geometry": {"type": "Point", "coordinates": [-176.63924757650267, 37.34156135284559]}}, {"type": "Feature", "properties": {"norad_id": 66588, "name": "STARLINK-36076", "group": "last-30-days", "lat": 40.00698562611715, "lon": 170.6923999448162, "alt_km": 438.04478650188594, "timestamp": "2025-12-27T17:24:56.103743+00:00", "meta": {"OBJECT_NAME": "STARLINK-36076", "OBJECT_ID": "2025-270A", "EPOCH": "2025-12-27T07:46:33.454848", "MEAN_MOTION": 15.40751404, "ECCENTRICITY": 0.0001063, "INCLINATION": 42.9964, "RA_OF_ASC_NODE": 108.7446, "ARG_OF_PERICENTER": 227.5202, "MEAN_ANOMALY": 132.5564, "EPHEMERIS_TYPE": 0, "CLASSIFICATION_TYPE": "U", "NORAD_CAT_ID": 66588, "ELEMENT_SET_NO": 999, "REV_AT_EPOCH": 659, "BSTAR": 0.0015993, "MEAN_MOTION_DOT": 0.00067208, "MEAN_MOTION_DDOT": 0}, "tle": {"line1": "1 66588U 25270A   25361.32399832  .00067208  00000+0  15993-2 0  9996", "line2": "2 66588  42.9964 108.7446 0001063 227.5202 132.5564 15.40751404  6596"}}, "geometry": {"type": "Point", "coordinates": [170.6923999448162, 40.00698562611715]}}, {"type": "Feature", "properties": {"norad_id": 66589, "name": "STARLINK-35447", "group": "last-30-days", "lat": 6.36814146799905, "lon": -80.69280813599524, "alt_km": 442.6746362204849, "timestamp": "2025-12-27T17:24:56.103753+00:00", "meta": {"OBJECT_NAME": "STARLINK-35447", "OBJECT_ID": "2025-270B", "EPOCH": "2025-12-25T14:53:33.760896", "MEAN_MOTION": 15.4069884, "ECCENTRICITY": 0.0001173, "INCLINATION": 43.0008, "RA_OF_ASC_NODE": 118.3206, "ARG_OF_PERICENTER": 257.0782, "MEAN_ANOMALY": 102.9943, "EPHEMERIS_TYPE": 0, "CLASSIFICATION_TYPE": "U", "NORAD_CAT_ID": 66589, "ELEMENT_SET_NO": 999, "REV_AT_EPOCH": 644, "BSTAR": 0.00080611, "MEAN_MOTION_DOT": 0.00033516, "MEAN_MOTION_DDOT": 0}, "tle": {"line1": "1 66589U 25270B   25359.62052964  .00033516  00000+0  80611-3 0  9994", "line2": "2 66589  43.0008 118.3206 0001173 257.0782 102.9943 15.40698840  6442"}}, "geometry": {"type": "Point", "coordinates": [-80.69280813599524, 6.36814146799905]}}, {"type": "Feature", "properties": {"norad_id": 66590, "name": "STARLINK-35429", "group": "last-30-days", "lat": -41.677177160197694, "lon": -1.1831285077696576, "alt_km": 446.21328022375565, "timestamp": "2025-12-27T17:24:56.103766+00:00", "meta": {"OBJECT_NAME": "STARLINK-35429", "OBJECT_ID": "2025-270C", "EPOCH": "2025-12-27T06:58:10.022592", "MEAN_MOTION": 15.40777003, "ECCENTRICITY": 0.000119, "INCLINATION": 42.9965, "RA_OF_ASC_NODE": 108.4882, "ARG_OF_PERICENTER": 251.5794, "MEAN_ANOMALY": 108.4933, "EPHEMERIS_TYPE": 0, "CLASSIFICATION_TYPE": "U", "NORAD_CAT_ID": 66590, "ELEMENT_SET_NO": 999, "REV_AT_EPOCH": 670, "BSTAR": 0.0010575, "MEAN_MOTION_DOT": 0.00044239, "MEAN_MOTION_DDOT": 0}, "tle": {"line1": "1 66590U 25270C   25361.29039378  .00044239  00000+0  10575-2 0  9991", "line2": "2 66590  42.9965 108.4882 0001190 251.5794 108.4933 15.40777003  6703"}}, "geometry": {"type": "Point", "coordinates": [-1.1831285077696576, -41.677177160197694]}}, {"type": "Feature", "properties": {"norad_id": 66591, "name": "STARLINK-36058", "group": "last-30-days", "lat": -10.516844111795768, "lon": 94.2810778846703, "alt_km": 443.54561600251054, "timestamp": "2025-12-27T17:24:56.103777+00:00", "meta": {"OBJECT_NAME": "STARLINK-36058", "OBJECT_ID": "2025-270D", "EPOCH": "2025-12-26T15:02:03.164928", "MEAN_MOTION": 15.40738813, "ECCENTRICITY": 0.00026937, "INCLINATION": 43.0054, "RA_OF_ASC_NODE": 112.1064, "ARG_OF_PERICENTER": 284.3087, "MEAN_ANOMALY": 75.747, "EPHEMERIS_TYPE": 0, "CLASSIFICATION_TYPE": "U", "NORAD_CAT_ID": 66591, "ELEMENT_SET_NO": 999, "REV_AT_EPOCH": 649, "BSTAR": 0.0011610165, "MEAN_MOTION_DOT": 0.0004857, "MEAN_MOTION_DDOT": 0}, "tle": {"line1": "1 66591U 25270D   25360.62642552  .00048570  00000+0  11610-2 0  9995", "line2": "2 66591  43.0054 112.1064 0002693 284.3087  75.7470 15.40738813  6491"}}, "geometry": {"type": "Point", "coordinates": [94.2810778846703, -10.516844111795768]}}, {"type": "Feature", "properties": {"norad_id": 66592, "name": "STARLINK-36066", "group": "last-30-days", "lat": 35.79049838613319, "lon": -124.37514472202783, "alt_km": 438.7910907489004, "timestamp": "2025-12-27T17:24:56.103787+00:00", "meta": {"OBJECT_NAME": "STARLINK-36066", "OBJECT_ID": "2025-270E", "EPOCH": "2025-12-26T08:13:21.289728", "MEAN_MOTION": 15.40749213, "ECCENTRICITY": 0.0001723, "INCLINATION": 43.0012, "RA_OF_ASC_NODE": 114.282, "ARG_OF_PERICENTER": 268.5662, "MEAN_ANOMALY": 91.4997, "EPHEMERIS_TYPE": 0, "CLASSIFICATION_TYPE": "U", "NORAD_CAT_ID": 66592, "ELEMENT_SET_NO": 999, "REV_AT_EPOCH": 634, "BSTAR": 0.0013745, "MEAN_MOTION_DOT": 0.00057643, "MEAN_MOTION_DDOT": 0}, "tle": {"line1": "1 66592U 25270E   25360.34260752  .00057643  00000+0  13745-2 0  9995", "line2": "2 66592  43.0012 114.2820 0001723 268.5662  91.4997 15.40749213  6344"}}, "geometry": {"type": "Point", "coordinates": [-124.37514472202783, 35.79049838613319]}}, {"type": "Feature", "properties": {"norad_id": 66593, "name": "STARLINK-36031", "group": "last-30-days", "lat": -18.485249559298246, "lon": -52.8782364083483, "alt_km": 446.5778711131061, "timestamp": "2025-12-27T17:24:56.103797+00:00", "meta": {"OBJECT_NAME": "STARLINK-36031", "OBJECT_ID": "2025-270F", "EPOCH": "2025-12-26T17:10:54.853824", "MEAN_MOTION": 15.40744951, "ECCENTRICITY": 0.00017656, "INCLINATION": 43.0007, "RA_OF_ASC_NODE": 111.9193, "ARG_OF_PERICENTER": 34.9432, "MEAN_ANOMALY": 325.154, "EPHEMERIS_TYPE": 0, "CLASSIFICATION_TYPE": "U", "NORAD_CAT_ID": 66593, "ELEMENT_SET_NO": 999, "REV_AT_EPOCH": 650, "BSTAR": 0.0012375744, "MEAN_MOTION_DOT": 0.00051823, "MEAN_MOTION_DDOT": 0}, "tle": {"line1": "1 66593U 25270F   25360.71591266  .00051823  00000+0  12376-2 0  9997", "line2": "2 66593  43.0007 111.9193 0001765  34.9432 325.1540 15.40744951  6505"}}, "geometry": {"type": "Point", "coordinates": [-52.8782364083483, -18.485249559298246]}}, {"type": "Feature", "properties": {"norad_id": 66594, "name": "STARLINK-36032", "group": "last-30-days", "lat": -33.0336375490002, "lon": 61.60697142268925, "alt_km": 445.76314046946936, "timestamp": "2025-12-27T17:24:56.103807+00:00", "meta": {"OBJECT_NAME": "STARLINK-36032", "OBJECT_ID": "2025-270G", "EPOCH": "2025-12-27T00:31:51.156768", "MEAN_MOTION": 15.40705976, "ECCENTRICITY": 0.00015814, "INCLINATION": 42.9991, "RA_OF_ASC_NODE": 109.9145, "ARG_OF_PERICENTER": 273.7996, "MEAN_ANOMALY": 86.2679, "EPHEMERIS_TYPE": 0, "CLASSIFICATION_TYPE": "U", "NORAD_CAT_ID": 66594, "ELEMENT_SET_NO": 999, "REV_AT_EPOCH": 636, "BSTAR": 0.0012136761, "MEAN_MOTION_DOT": 0.00050743, "MEAN_MOTION_DDOT": 0}, "tle": {"line1": "1 66594U 25270G   25361.02211987  .00050743  00000+0  12137-2 0  9997", "line2": "2 66594  42.9991 109.9145 0001581 273.7996  86.2679 15.40705976  6360"}}, "geometry": {"type": "Point", "coordinates": [61.60697142268925, -33.0336375490002]}}]}